IRIDIUM 63              
1 25286U 98021B   25223.90333753  .00000345  00000+0  11078-3 0  9991
2 25286  86.3934  58.7430 0002328  90.0068 270.1396 14.36578542431846
IRIDIUM 69              
1 25319U 98026A   25223.95324576  .00000396  00000+0  11709-3 0  9998
2 25319  86.3924  71.8451 0002539 147.7905 212.3450 14.41011297431096
IRIDIUM 71              
1 25320U 98026B   25223.95285772  .00000342  00000+0  10001-3 0  9999
2 25320  86.3923  66.5254 0000258 162.8613 197.2596 14.41194308431625
IRIDIUM 73              
1 25344U 98032C   25223.89291026  .00000550  00000+0  13171-3 0  9996
2 25344  86.4417  23.1454 0002511 106.3003 253.8479 14.51766111438647
IRIDIUM 82              
1 25467U 98051A   25223.89242966  .00029575  00000+0  78467-3 0  9999
2 25467  86.3611  82.2933 0083606  84.9231 276.1556 15.34583869432494
